NORAD_CAT_ID,OBJECT_NAME,OBJECT_TYPE,EPOCH,MEAN_MOTION,ECCENTRICITY,INCLINATION,RA_OF_ASC_NODE,ARG_OF_PERICENTER,MEAN_ANOMALY,BSTAR,MEAN_MOTION_DOT,MEAN_MOTION_DDOT,TLE_LINE0,TLE_LINE1,TLE_LINE2,SEMIMAJOR_AXIS,PERIOD,APOGEE,PERIGEE,DECAYED
54204.0,STARLINK-5241,PAYLOAD,2022-12-16 00:27:04,15.73271475,0.0003128,53.2134,261.4985,7.4152,352.6913,0.00026847,0.00037346,0.0,0 STARLINK-5241,1 54204U 22141AZ  22350.01879999  .00037346  00000-0  26847-3 0  9992,2 54204  53.2134 261.4985 0003128   7.4152 352.6913 15.73271475  7977,6727.691,91.529,351.661,347.452,0.0
54204.0,STARLINK-5241,PAYLOAD,2022-12-16 03:30:02,15.73212124,0.0003098,53.2133,260.8694,18.0071,342.1059,0.00025081,0.00034748,0.0,0 STARLINK-5241,1 54204U 22141AZ  22350.14586170  .00034748  00000-0  25081-3 0  9994,2 54204  53.2133 260.8694 0003098  18.0071 342.1059 15.73212124  7993,6727.861,91.532,351.81,347.641,0.0
54204.0,STARLINK-5241,PAYLOAD,2022-12-16 14:10:25,15.73143891,0.0002518,53.2127,258.6707,19.4358,340.6758,0.00038085,0.00053044,0.0,0 STARLINK-5241,1 54204U 22141AZ  22350.59057600  .00053044  00000-0  38085-3 0  9992,2 54204  53.2127 258.6707 0002518  19.4358 340.6758 15.73143891  7831,6728.055,91.536,351.61400000000015,348.226,0.0
54204.0,STARLINK-5241,PAYLOAD,2022-12-16 18:44:53,15.73111616,0.0002807,53.213,257.7263,10.1646,349.9430000000001,0.00028249,0.00039065,0.0,0 STARLINK-5241,1 54204U 22141AZ  22350.78117389  .00039065  00000-0  28249-3 0  9992,2 54204  53.2130 257.7263 0002807  10.1646 349.9430 15.73111616  8099,6728.147,91.538,351.901,348.124,0.0
54204.0,STARLINK-5241,PAYLOAD,2022-12-17 03:53:47,15.73169705,0.0002515,53.2131,255.8394,23.1172,336.9961,0.00057688,0.00081027,0.0,0 STARLINK-5241,1 54204U 22141AZ  22351.16235633  .00081027  00000-0  57688-3 0  9992,2 54204  53.2131 255.8394 0002515  23.1172 336.9961 15.73169705  8152,6727.982,91.535,351.539,348.154,0.0
54204.0,STARLINK-5241,PAYLOAD,2022-12-18 02:46:01,15.73214736,0.0002712,53.2142,251.1217,25.499,334.6164,0.00024557,0.00034008,0.0,0 STARLINK-5241,1 54204U 22141AZ  22352.11529063  .00034008  00000-0  24557-3 0  9997,2 54204  53.2142 251.1217 0002712  25.4990 334.6164 15.73214736  8301,6727.853,91.532,351.543,347.894,0.0
54204.0,STARLINK-5241,PAYLOAD,2022-12-19 01:38:11,15.7323183,0.0002149,53.214,246.4076,17.9888,342.1207,0.00012517,0.00017006,0.0,0 STARLINK-5241,1 54204U 22141AZ  22353.06819110  .00017006  00000-0  12517-3 0  9999,2 54204  53.2140 246.4076 0002149  17.9888 342.1207 15.73231830  8457,6727.804,91.531,351.115,348.224,0.0
54204.0,STARLINK-5241,PAYLOAD,2022-12-19 22:58:54,15.73213011,0.0002285,53.2137,242.0065,16.1181,343.9911,-4.982800000000001e-05,-7.613e-05,0.0,0 STARLINK-5241,1 54204U 22141AZ  22353.95757020 -.00007613  00000-0 -49828-4 0  9999,2 54204  53.2137 242.0065 0002285  16.1181 343.9911 15.73213011  8598,6727.858,91.532,351.26,348.186,0.0
54204.0,STARLINK-5241,PAYLOAD,2022-12-20 09:39:15,15.73234364,0.0002205,53.2138,239.8056,15.8292,344.2797,3.2211e-05,3.908e-05,0.0,0 STARLINK-5241,1 54204U 22141AZ  22354.40226037  .00003908  00000-0  32211-4 0  9998,2 54204  53.2138 239.8056 0002205  15.8292 344.2797 15.73234364  8662,6727.797,91.531,351.146,348.17900000000014,0.0
54204.0,STARLINK-5241,PAYLOAD,2022-12-20 17:16:39,15.73223628,0.0002223,53.2152,238.2314,27.504,332.6098,4.7857e-06,5.1e-07,0.0,0 STARLINK-5241,1 54204U 22141AZ  22354.71989816  .00000051  00000-0  47857-5 0  9992,2 54204  53.2152 238.2314 0002223  27.5040 332.6098 15.73223628  8711,6727.828,91.532,351.18800000000016,348.19699999999995,0.0
54204.0,STARLINK-5241,PAYLOAD,2022-12-21 02:25:33,15.73184794,0.0001999,53.2141,236.3502,35.8884,324.2270000000001,-7.3667e-05,-0.0001094,0.0,0 STARLINK-5241,1 54204U 22141AZ  22355.10108245 -.00010940  00000-0 -73667-4 0  9992,2 54204  53.2141 236.3502 0001999  35.8884 324.2270 15.73184794  8779,6727.939,91.534,351.148,348.459,0.0
54204.0,STARLINK-5241,PAYLOAD,2022-12-22 02:49:16,15.73176631,0.0002423,53.2141,231.3172,27.5437,332.5712,-1.0117e-05,-2.04e-05,0.0,0 STARLINK-5241,1 54204U 22141AZ  22356.11754920 -.00002040  00000-0 -10117-4 0  9994,2 54204  53.2141 231.3172 0002423  27.5437 332.5712 15.73176631  8934,6727.962,91.535,351.457,348.19699999999995,0.0
54204.0,STARLINK-5241,PAYLOAD,2022-12-22 08:55:11,15.73187838,0.000248,53.2136,230.06,32.7104,327.407,2.0179e-05,2.21e-05,0.0,0 STARLINK-5241,1 54204U 22141AZ  22356.37166020  .00002210  00000-0  20179-4 0  9996,2 54204  53.2136 230.0600 0002480  32.7104 327.4070 15.73187838  8977,6727.93,91.534,351.463,348.126,0.0
54204.0,STARLINK-5241,PAYLOAD,2022-12-22 21:07:01,15.73198621,0.0002324,53.2137,227.5429,28.7899,331.3249,5.2052e-05,6.69e-05,0.0,0 STARLINK-5241,1 54204U 22141AZ  22356.87988408  .00006690  00000-0  52052-4 0  9994,2 54204  53.2137 227.5429 0002324  28.7899 331.3249 15.73198621  8829,6727.899,91.533,351.32800000000015,348.201,0.0
54204.0,STARLINK-5241,PAYLOAD,2022-12-23 03:12:57,15.73189299,0.000294,53.2134,226.2884,21.7349,338.3795,3.6831e-05,4.548e-05,0.0,0 STARLINK-5241,1 54204U 22141AZ  22357.13400449  .00004548  00000-0  36831-4 0  9995,2 54204  53.2134 226.2884 0002940  21.7349 338.3795 15.73189299  8862,6727.926,91.534,351.769,347.81300000000016,0.0
54204.0,STARLINK-5241,PAYLOAD,2022-12-23 19:59:15,15.73193963,0.0002167,53.2124,222.8315,18.1879,341.9218,3.6422e-05,4.492e-05,0.0,0 STARLINK-5241,1 54204U 22141AZ  22357.83281423  .00004492  00000-0  36422-4 0  9995,2 54204  53.2124 222.8315 0002167  18.1879 341.9218 15.73193963  8976,6727.9119999999975,91.534,351.235,348.319,0.0
54204.0,STARLINK-5241,PAYLOAD,2022-12-24 02:05:09,15.73221424,0.0002068,53.2129,221.5708,23.9468,336.1648,7.658e-05,0.0001015,0.0,0 STARLINK-5241,1 54204U 22141AZ  22358.08691488  .00010150  00000-0  76580-4 0  9996,2 54204  53.2129 221.5708 0002068  23.9468 336.1648 15.73221424  9249,6727.834,91.532,351.09,348.30800000000005,0.0
54204.0,STARLINK-5241,PAYLOAD,2022-12-24 08:11:03,15.73238949,0.0002298,53.2132,220.3136,22.6594,337.4528,9.3357e-05,0.00012523,0.0,0 STARLINK-5241,1 54204U 22141AZ  22358.34101724  .00012523  00000-0  93357-4 0  9991,2 54204  53.2132 220.3136 0002298  22.6594 337.4528 15.73238949  9281,6727.784000000002,91.531,351.195,348.103,0.0
54204.0,STARLINK-5241,PAYLOAD,2022-12-24 18:51:25,15.73224054,0.0002739,53.213,218.1141,0.6577,359.4447,4.2272e-05,5.321e-05,0.0,0 STARLINK-5241,1 54204U 22141AZ  22358.78571321  .00005321  00000-0  42272-4 0  9991,2 54204  53.2130 218.1141 0002739   0.6577 359.4447 15.73224054  9351,6727.8269999999975,91.532,351.534,347.849,0.0
54204.0,STARLINK-5241,PAYLOAD,2022-12-24 21:54:23,15.73219965,0.0002292,53.2127,217.4841,16.7985,343.311,2.1722e-05,2.43e-05,0.0,0 STARLINK-5241,1 54204U 22141AZ  22358.91276874  .00002430  00000-0  21722-4 0  9996,2 54204  53.2127 217.4841 0002292  16.7985 343.3110 15.73219965  9142,6727.8380000000025,91.532,351.245,348.161,0.0
54204.0,STARLINK-5241,PAYLOAD,2022-12-24 23:25:51,15.73221139,0.0002287,53.2129,217.1698,16.8259,343.2837,2.4294e-05,2.792e-05,0.0,0 STARLINK-5241,1 54204U 22141AZ  22358.97629544  .00002792  00000-0  24294-4 0  9996,2 54204  53.2129 217.1698 0002287  16.8259 343.2837 15.73221139  9152,6727.835,91.532,351.23900000000015,348.161,0.0
54204.0,STARLINK-5241,PAYLOAD,2022-12-25 14:40:39,15.73220437,0.0002087,53.2128,214.0261,9.8744,350.2317,8.2187e-06,5.33e-06,0.0,0 STARLINK-5241,1 54204U 22141AZ  22359.61156803  .00000533  00000-0  82187-5 0  9998,2 54204  53.2128 214.0261 0002087   9.8744 350.2317 15.73220437  9489,6727.837,91.532,351.106,348.298,0.0
54204.0,STARLINK-5241,PAYLOAD,2022-12-25 20:46:34,15.73232046,0.0002034,53.2127,212.7684,32.5965,327.518,3.9394e-05,4.918e-05,0.0,0 STARLINK-5241,1 54204U 22141AZ  22359.86567352  .00004918  00000-0  39394-4 0  9992,2 54204  53.2127 212.7684 0002034  32.5965 327.5180 15.73232046  9295,6727.804,91.531,351.037,348.3,0.0
54204.0,STARLINK-5241,PAYLOAD,2022-12-25 23:49:31,15.73249173,0.0002561,53.2129,212.1396,24.8923,335.222,7.5279e-05,9.979e-05,0.0,0 STARLINK-5241,1 54204U 22141AZ  22359.99272189  .00009979  00000-0  75279-4 0  9991,2 54204  53.2129 212.1396 0002561  24.8923 335.2220 15.73249173  9542,6727.755,91.53,351.343,347.897,0.0
54204.0,STARLINK-5241,PAYLOAD,2022-12-26 21:10:58,15.72182884,0.0001189,53.2127,207.7431,284.5154,75.5733,-0.002152,-0.00280348,0.0,0 STARLINK-5241,1 54204U 22141AZ  22360.88262379 -.00280348  00000-0 -21520-2 0  9992,2 54204  53.2127 207.7431 0001189 284.5154  75.5733 15.72182884  9688,6730.797,91.592,353.462,351.861,0.0
54204.0,STARLINK-5241,PAYLOAD,2022-12-28 06:00:00,15.68116295,0.0001605,53.2169,201.0014,37.9159,134.3676,-0.011189,-0.01149561,0.0,0 STARLINK-5241,1 54204U 22141AZ  22362.25001157 -.01149561  00000-0 -11189-1 0  9991,2 54204  53.2169 201.0014 0001605  37.9159 134.3676 15.68116295  9897,6742.428000000001,91.83,365.375,363.211,0.0
54204.0,STARLINK-5241,PAYLOAD,2022-12-28 14:00:01,15.67304293,0.0001754999999999,53.2168,199.3647,30.2815,224.3125,-0.011568,-0.0114954,0.0,0 STARLINK-5241,1 54204U 22141AZ  22362.58334491 -.01149540  00000-0 -11568-1 0  9995,2 54204  53.2168 199.3647 0001755  30.2815 224.3125 15.67304293  1301,6744.757,91.877,367.805,365.43800000000016,0.0
54204.0,STARLINK-5241,PAYLOAD,2022-12-28 22:00:00,15.66490739,0.0001386999999999,53.217,197.7327,41.8564,294.0708,-0.011979,-0.01151167,0.0,0 STARLINK-5241,1 54204U 22141AZ  22362.91667824 -.01151167  00000-0 -11979-1 0  9995,2 54204  53.2170 197.7327 0001387  41.8564 294.0708 15.66490739  1302,6747.092,91.925,369.893,368.021,0.0
54204.0,STARLINK-5241,PAYLOAD,2022-12-29 06:00:02,15.65676176,0.0001662,53.2167,196.0991,30.9413,25.4085,-0.012356,-0.01149146,0.0,0 STARLINK-5241,1 54204U 22141AZ  22363.25002315 -.01149146  00000-0 -12356-1 0  9995,2 54204  53.2167 196.0991 0001662  30.9413  25.4085 15.65676176 10051,6749.432,91.973,372.419,370.175,0.0
